STARLINK-4211           
1 52873U 22062AV  26068.22571263  .00000241  00000+0  33241-4 0  9990
2 52873  53.2203  16.2045 0001416  96.2205 263.8949 15.08830167205991
2024-205C               
1 61896U 24205C   26067.20867002  .00012247  00000+0  67177-3 0  9995
2 61896  97.4204 141.0161 0044383 341.9375  18.0277 15.13448144 72971
